MEAN_MOTION;ECCENTRICITY;INCLINATION;RA_OF_ASC_NODE;ARG_OF_PERICENTER;MEAN_ANOMALY;BSTAR;MEAN_MOTION_DOT;MEAN_MOTION_DDOT;TYPE
14.73324313;0.0008455;48.4457;315.9275;359.2285;18.2954;2.9432E-5;-1.0E-7;0;Orbcomm
14.73324487;0.0008431;48.4455;313.5736;1.4259;151.567;2.9519E-5;-1.0E-7;0;Orbcomm
14.73324738;0.0008395;48.4454;310.4396;4.2888;84.0248;2.9614E-5;-9.0E-8;0;Orbcomm
14.73325117;0.0008365;48.4453;307.5905;6.9063;55.5372;3.2999E-5;1.3E-7;0;Orbcomm
14.7332524;0.000834;48.4453;305.6689;8.7294;61.3125;3.217E-5;8.0E-8;0;Orbcomm
14.73325526;0.000831;48.4452;302.7971;11.4003;58.3881;3.3205E-5;1.4E-7;0;Orbcomm
14.73325586;0.0008301;48.4452;302.1954;11.9737;16.5179;3.3399E-5;1.6E-7;0;Orbcomm
14.73325639;0.0008289;48.4451;301.4788;12.6535;104.1677;3.2776E-5;1.2E-7;0;Orbcomm
14.73325946;0.0008259;48.445;297.7368;16.1321;1.8887;3.2541E-5;1.0E-7;0;Orbcomm
14.73325966;0.0008253;48.445;297.3987;16.4664;22.9156;3.2151E-5;7.0E-8;0;Orbcomm
14.73326397;0.0008206;48.4449;292.6077;20.9847;23.0192;3.1496E-5;3.0E-8;0;Orbcomm
14.73326576;0.00082;48.4449;291.2494;22.2793;114.0281;3.2369E-5;9.0E-8;0;Orbcomm
14.7332673;0.0008155;48.4448;287.7571;25.5729;90.2029;2.9487E-5;-1.0E-7;0;Orbcomm
14.73327089;0.0008149;48.4447;282.9716;29.888;84.3696;2.8738E-5;-1.5E-7;0;Orbcomm
14.73327367;0.0008109;48.4445;277.8825;34.6971;60.3532;2.5394E-5;-3.7E-7;0;Orbcomm
14.73327739;0.0008049;48.4444;273.1135;39.3093;35.3886;2.5983E-5;-3.3E-7;0;Orbcomm
14.73328162;0.000802;48.4443;268.3163;43.7949;42.2949;2.8914E-5;-1.4E-7;0;Orbcomm
14.73328188;0.000802;48.4443;267.9793;44.0946;62.1614;2.9077E-5;-1.3E-7;0;Orbcomm
14.73328405;0.0007996;48.4443;265.1782;46.7525;339.2882;2.9874E-5;-7.0E-8;0;Orbcomm
14.73328594;0.0007973;48.4443;262.2399;49.6138;50.9644;2.9215E-5;-1.2E-7;0;Orbcomm
14.73328724;0.0007959;48.4443;260.383;51.3854;343.6708;2.9898E-5;-7.0E-8;0;Orbcomm
14.73328749;0.0007958;48.4443;259.3733;52.3531;41.6638;2.9006E-5;-1.3E-7;0;Orbcomm
14.73329003;0.0007938;48.4443;255.9236;55.652;329.7907;2.959E-5;-9.0E-8;0;Orbcomm
14.73329346;0.0007911;48.4444;250.8141;60.5488;328.7355;2.8247E-5;-1.8E-7;0;Orbcomm
14.73329369;0.0007908;48.4444;250.1191;61.198;32.0773;2.783E-5;-2.1E-7;0;Orbcomm
14.7332977;0.0007845;48.4445;244.6752;66.5519;47.8286;2.7061E-5;-2.6E-7;0;Orbcomm
14.73329799;0.0007843;48.4445;244.3336;66.8743;72.8733;2.6991E-5;-2.6E-7;0;Orbcomm
14.73330095;0.0007828;48.4446;239.8747;71.1465;58.6543;2.5562E-5;-3.6E-7;0;Orbcomm
14.73330118;0.0007826;48.4446;239.5425;71.4491;73.1154;2.5415E-5;-3.7E-7;0;Orbcomm
14.73330386;0.00078;48.4446;235.7592;75.1304;17.2739;2.4825E-5;-4.0E-7;0;Orbcomm
14.73330606;0.0007781;48.4446;232.6202;78.141;315.2288;2.4094E-5;-4.5E-7;0;Orbcomm
14.73330689;0.0007777;48.4446;231.6106;79.127;13.2528;2.4125E-5;-4.5E-7;0;Orbcomm
14.73331042;0.0007745;48.4446;227.5091;83.1811;315.9907;2.4966E-5;-3.9E-7;0;Orbcomm
14.73331441;0.0007725;48.4446;223.0494;87.5431;302.5794;2.6505E-5;-2.9E-7;0;Orbcomm
14.73331509;0.0007732;48.4447;222.3566;88.1538;3.5651;2.6772E-5;-2.8E-7;0;Orbcomm
14.73331851;0.0007714;48.4446;218.5717;91.8032;309.5489;2.8578E-5;-1.6E-7;0;Orbcomm
14.73332477;0.0007708;48.4447;213.1022;97.1342;354.245;3.211E-5;7.0E-8;0;Orbcomm
14.7333268;0.0007746;48.4447;211.7799;98.2741;44.8697;3.3998E-5;2.0E-7;0;Orbcomm
14.73333189;0.0007738;48.4447;206.9863;102.9261;47.7826;3.5274E-5;2.8E-7;0;Orbcomm
14.73333511;0.0007732;48.4448;203.8482;106.0111;344.6556;3.4965E-5;2.6E-7;0;Orbcomm
14.73334101;0.0007732;48.4448;199.0772;110.6154;322.2589;3.7223E-5;4.1E-7;0;Orbcomm
14.73334674;0.0007749;48.4448;194.2849;115.2023;323.8306;3.7893E-5;4.5E-7;0;Orbcomm
14.73335174;0.0007757;48.4448;189.8232;119.4937;312.7946;3.7772E-5;4.4E-7;0;Orbcomm
14.73335517;0.0007762;48.4447;186.3472;122.8105;270.7563;3.6428E-5;3.6E-7;0;Orbcomm
14.73335672;0.0007767;48.4447;185.031;124.0781;314.3319;3.6397E-5;3.5E-7;0;Orbcomm
14.73336103;0.0007784;48.4445;180.2335;128.6194;321.8576;3.4142E-5;2.1E-7;0;Orbcomm
14.73336212;0.0007804;48.4445;179.2213;129.5505;22.8108;3.3836E-5;1.9E-7;0;Orbcomm
14.73336559;0.000783;48.4444;174.7627;133.7823;8.2566;3.1366E-5;2.0E-8;0;Orbcomm
14.73336869;0.0007849;48.4443;170.9796;137.3833;312.2741;3.0471E-5;-3.0E-8;0;Orbcomm
14.73337224;0.000789;48.4443;165.8162;142.2595;12.1584;2.8235E-5;-1.8E-7;0;Orbcomm
14.73337605;0.0007912;48.4442;160.7096;147.0481;7.9689;2.7783E-5;-2.1E-7;0;Orbcomm
14.733379;0.0007936;48.4442;156.8963;150.6097;345.9607;2.8119E-5;-1.9E-7;0;Orbcomm
14.73338208;0.0007957;48.4442;152.1046;155.0798;346.9053;2.7051E-5;-2.6E-7;0;Orbcomm
14.73338272;0.0007964;48.4442;151.4535;155.6679;0.6941;2.7127E-5;-2.5E-7;0;Orbcomm
14.73338583;0.000799;48.4442;147.3066;159.5161;354.8713;2.6871E-5;-2.7E-7;0;Orbcomm
14.73338608;0.0007992;48.4442;147.0016;159.7926;338.6385;2.6774E-5;-2.8E-7;0;Orbcomm
14.73338931;0.0008028;48.4441;142.5105;163.9163;0.8068;2.5905E-5;-3.3E-7;0;Orbcomm
14.7333897;0.0008033;48.4441;142.1995;164.1922;351.2913;2.6086E-5;-3.2E-7;0;Orbcomm
14.7333925;0.0008068;48.4441;138.0515;168.0013;346.7158;2.5041E-5;-3.9E-7;0;Orbcomm
14.73339437;0.0008089;48.4441;134.9735;170.8354;215.9308;2.3571E-5;-4.8E-7;0;Orbcomm
14.73339546;0.0008097;48.4441;133.2861;172.3435;317.9953;2.375E-5;-4.7E-7;0;Orbcomm
14.73339795;0.0008125;48.4441;130.1735;175.2149;226.2753;2.4142E-5;-4.5E-7;0;Orbcomm
14.73339832;0.0008133;48.4441;129.1685;176.1073;279.1456;2.3868E-5;-4.7E-7;0;Orbcomm
14.73339998;0.000816;48.4441;125.3782;179.5498;231.2126;2.1919E-5;-5.9E-7;0;Orbcomm
14.73340081;0.0008167;48.444;124.0316;180.7301;309.1436;2.2271E-5;-5.7E-7;0;Orbcomm
14.7334034;0.0008196;48.4441;119.2365;185.0562;313.874;2.1873E-5;-6.0E-7;0;Orbcomm
14.73340584;0.0008223;48.4442;114.442;189.3503;317.9611;2.1277E-5;-6.3E-7;0;Orbcomm
14.73340891;0.0008253;48.4443;109.9803;193.3209;307.0557;2.3095E-5;-5.2E-7;0;Orbcomm
14.73341106;0.0008289;48.4444;106.5111;196.4202;257.263;2.2907E-5;-5.3E-7;0;Orbcomm
14.73341201;0.0008296;48.4444;105.1892;197.6044;307.4135;2.3233E-5;-5.1E-7;0;Orbcomm
14.73341453;0.000834;48.4446;100.7258;201.5895;298.3661;2.2545E-5;-5.5E-7;0;Orbcomm
14.73341591;0.0008354;48.4447;98.2706;203.7635;185.7495;2.1983E-5;-5.9E-7;0;Orbcomm
14.73341701;0.0008367;48.4448;95.9347;205.8313;298.8117;2.118E-5;-6.4E-7;0;Orbcomm
14.7334184;0.000839;48.4449;93.4722;208.0082;194.4715;2.0654E-5;-6.8E-7;0;Orbcomm
14.73342026;0.0008398;48.4449;91.4699;209.7237;291.576;2.2043E-5;-5.8E-7;0;Orbcomm
14.73342132;0.0008413;48.445;89.3231;211.6447;191.3494;2.1151E-5;-6.4E-7;0;Orbcomm
14.73342353;0.0008419;48.4451;86.6804;213.9037;290.3672;2.1944E-5;-5.9E-7;0;Orbcomm
14.73342502;0.000844;48.4452;84.2011;216.0644;204.9699;2.1418E-5;-6.3E-7;0;Orbcomm
14.73342624;0.0008447;48.4452;83.2363;216.9161;212.5463;2.2424E-5;-5.6E-7;0;Orbcomm
14.73342758;0.0008439;48.4452;82.2154;217.7725;283.3278;2.4131E-5;-4.5E-7;0;Orbcomm
14.73343063;0.0008466;48.4454;78.4371;221.043;222.2132;2.454E-5;-4.2E-7;0;Orbcomm
14.73343163;0.0008459;48.4454;77.426;221.91;281.9784;2.5324E-5;-3.7E-7;0;Orbcomm
14.73343397;0.000848;48.4455;73.643;225.1489;226.242;2.4525E-5;-4.2E-7;0;Orbcomm
14.7334368;0.0008495;48.4456;70.1866;228.1228;162.2982;2.4837E-5;-4.0E-7;0;Orbcomm
14.73343818;0.0008502;48.4457;68.1717;229.8456;273.6031;2.5234E-5;-3.8E-7;0;Orbcomm
14.7334416;0.0008519;48.4458;63.3788;233.9352;276.4007;2.4916E-5;-4.0E-7;0;Orbcomm
14.73344494;0.0008541;48.446;59.2564;237.4709;243.3544;2.5385E-5;-3.7E-7;0;Orbcomm
14.73344876;0.0008551;48.4462;54.7596;241.294;272.4406;2.6619E-5;-2.9E-7;0;Orbcomm
14.73345199;0.0008564;48.4463;51.3491;244.1568;156.989;2.7215E-5;-2.5E-7;0;Orbcomm
14.73345357;0.000856;48.4463;49.9697;245.3245;271.9855;2.8501E-5;-1.6E-7;0;Orbcomm
14.73345413;0.0008557;48.4463;49.6637;245.6101;256.9719;2.9108E-5;-1.2E-7;0;Orbcomm
14.73345875;0.000857;48.4464;46.8856;247.943;148.6252;3.4213E-5;2.1E-7;0;Orbcomm
14.73346205;0.0008565;48.4464;44.8697;249.6456;261.1505;3.7688E-5;4.4E-7;0;Orbcomm
14.73346332;0.000857;48.4465;41.7324;252.25;197.7792;3.2396E-5;9.0E-8;0;Orbcomm
14.73346735;0.0008571;48.4465;37.6323;255.6749;139.6709;3.2428E-5;1.0E-7;0;Orbcomm
14.73346759;0.0008567;48.4465;37.2986;255.957;155.883;3.224E-5;8.0E-8;0;Orbcomm
14.73347422;0.0008565;48.4465;32.8408;259.6991;140.9527;3.6723E-5;3.8E-7;0;Orbcomm
14.73347637;0.0008566;48.4465;31.4948;260.8561;218.2825;3.9133E-5;5.3E-7;0;Orbcomm
14.73347842;0.0008564;48.4465;28.0429;263.7158;149.5182;3.4335E-5;2.2E-7;0;Orbcomm
14.73347991;0.0008558;48.4465;26.6962;264.8818;227.6026;3.4988E-5;2.6E-7;0;Orbcomm
14.73348264;0.000856;48.4465;23.2244;267.7952;181.1374;3.2015E-5;7.0E-8;0;Orbcomm
14.73348568;0.0008553;48.4465;21.9009;268.9067;233.0874;3.6492E-5;3.6E-7;0;Orbcomm
14.73348684;0.0008544;48.4466;18.4303;271.7938;185.2852;3.0508E-5;-3.0E-8;0;Orbcomm
14.73348789;0.0008537;48.4466;17.1018;272.9791;242.8067;2.9832E-5;-7.0E-8;0;Orbcomm
14.73349053;0.0008534;48.4466;13.9946;275.5114;145.3785;2.874E-5;-1.5E-7;0;Orbcomm
14.73349433;0.0008512;48.4466;9.1593;279.582;196.0721;2.7306E-5;-2.4E-7;0;Orbcomm
14.7334962;0.00085;48.4466;7.8482;280.6903;234.0422;2.9076E-5;-1.2E-7;0;Orbcomm
14.73349791;0.0008485;48.4466;4.4077;283.508;152.4394;2.5808E-5;-3.4E-7;0;Orbcomm
14.73349868;0.0008481;48.4466;3.3943;284.4311;214.7012;2.5759E-5;-3.4E-7;0;Orbcomm
14.73350108;0.000846;48.4465;359.6104;287.5119;160.3154;2.4409E-5;-4.3E-7;0;Orbcomm
14.73350162;0.0008462;48.4465;358.5935;288.4683;226.5581;2.3996E-5;-4.6E-7;0;Orbcomm
14.73350343;0.0008443;48.4464;355.1538;291.2466;144.0517;2.2467E-5;-5.6E-7;0;Orbcomm
14.73350544;0.0008427;48.4464;351.0267;294.768;116.3177;2.0938E-5;-6.6E-7;0;Orbcomm
14.73350575;0.0008421;48.4463;350.3565;295.3477;151.8425;2.1054E-5;-6.5E-7;0;Orbcomm
14.73350781;0.0008402;48.4462;345.8998;299.1128;135.5672;1.9908E-5;-7.2E-7;0;Orbcomm
14.73350802;0.0008399;48.4462;345.5624;299.3919;155.9692;2.0112E-5;-7.1E-7;0;Orbcomm
14.73350996;0.0008376;48.4461;341.1024;303.1995;143.3243;1.9255E-5;-7.7E-7;0;Orbcomm
14.73351027;0.0008372;48.4461;340.7652;303.5023;163.3513;1.9595E-5;-7.5E-7;0;Orbcomm
